{
  "type": "FeatureCollection",
  "features": [
    {
      "type": "Feature",
      "properties": {
        "norad_id": 43823,
        "name": "GEO-KOMPSAT-2A",
        "group": "weather",
        "lat": 0.026923240734862044,
        "lon": 140.7604236366838,
        "alt_km": 35784.83777739552,
        "timestamp": "2025-12-20T18:51:31.361018+00:00",
        "meta_object_name": "GEO-KOMPSAT-2A",
        "meta_object_id": "2018-100A",
        "meta_epoch": "2025-12-20T09:00:38.665728",
        "meta_mean_motion": 1.00271358,
        "meta_eccentricity": 4.272e-05,
        "meta_inclination": 0.0523,
        "meta_ra_of_asc_node": 142.1748,
        "meta_arg_of_pericenter": 320.5531,
        "meta_mean_anomaly": 249.9154,
        "meta_ephemeris_type": 0,
        "meta_classification_type": "U",
        "meta_norad_cat_id": 43823,
        "meta_element_set_no": 999,
        "meta_rev_at_epoch": 2583,
        "meta_bstar": 0,
        "meta_mean_motion_dot": -3.2e-06,
        "meta_mean_motion_ddot": 0,
        "tle_line1": "1 43823U 18100A   25354.37544752 -.00000320  00000+0  00000+0 0  9990",
        "tle_line2": "2 43823   0.0523 142.1748 0000427 320.5531 249.9154  1.00271358 25830"
      },
      "geometry": {
        "type": "Point",
        "coordinates": [
          140.7604236366838,
          0.026923240734862044
        ]
      }
    },
    {
      "type": "Feature",
      "properties": {
        "norad_id": 44387,
        "name": "METEOR-M2 2",
        "group": "weather",
        "lat": -27.274358621003724,
        "lon": 149.98063850975174,
        "alt_km": 816.2994617641443,
        "timestamp": "2025-12-20T18:51:31.361029+00:00",
        "meta_object_name": "METEOR-M2 2",
        "meta_object_id": "2019-038A",
        "meta_epoch": "2025-12-20T14:30:55.849248",
        "meta_mean_motion": 14.24293733,
        "meta_eccentricity": 0.00016064,
        "meta_inclination": 98.8971,
        "meta_ra_of_asc_node": 334.4298,
        "meta_arg_of_pericenter": 131.5665,
        "meta_mean_anomaly": 228.5651,
        "meta_ephemeris_type": 0,
        "meta_classification_type": "U",
        "meta_norad_cat_id": 44387,
        "meta_element_set_no": 999,
        "meta_rev_at_epoch": 33587,
        "meta_bstar": -6.051537e-05,
        "meta_mean_motion_dot": -1.85e-06,
        "meta_mean_motion_ddot": 0,
        "tle_line1": "1 44387U 19038A   25354.60481307 -.00000185  00000+0 -60515-4 0  9991",
        "tle_line2": "2 44387  98.8971 334.4298 0001606 131.5665 228.5651 14.24293733335876"
      },
      "geometry": {
        "type": "Point",
        "coordinates": [
          149.98063850975174,
          -27.274358621003724
        ]
      }
    },
    {
      "type": "Feature",
      "properties": {
        "norad_id": 47719,
        "name": "ARKTIKA-M 1",
        "group": "weather",
        "lat": 63.18973762376317,
        "lon": 173.70179283052187,
        "alt_km": 39261.62621956718,
        "timestamp": "2025-12-20T18:51:31.361045+00:00",
        "meta_object_name": "ARKTIKA-M 1",
        "meta_object_id": "2021-016A",
        "meta_epoch": "2025-12-20T01:15:32.338368",
        "meta_mean_motion": 2.00630446,
        "meta_eccentricity": 0.72079263,
        "meta_inclination": 63.1764,
        "meta_ra_of_asc_node": 82.997,
        "meta_arg_of_pericenter": 269.153,
        "meta_mean_anomaly": 15.5565,
        "meta_ephemeris_type": 0,
        "meta_classification_type": "U",
        "meta_norad_cat_id": 47719,
        "meta_element_set_no": 999,
        "meta_rev_at_epoch": 3519,
        "meta_bstar": 0,
        "meta_mean_motion_dot": -1.14e-06,
        "meta_mean_motion_ddot": 0,
        "tle_line1": "1 47719U 21016A   25354.05245762 -.00000114  00000+0  00000+0 0  9993",
        "tle_line2": "2 47719  63.1764  82.9970 7207926 269.1530  15.5565  2.00630446 35191"
      },
      "geometry": {
        "type": "Point",
        "coordinates": [
          173.70179283052187,
          63.18973762376317
        ]
      }
    },
    {
      "type": "Feature",
      "properties": {
        "norad_id": 49008,
        "name": "FENGYUN 3E",
        "group": "weather",
        "lat": 38.41231010439014,
        "lon": -11.800544610872164,
        "alt_km": 823.3804314845893,
        "timestamp": "2025-12-20T18:51:31.361061+00:00",
        "meta_object_name": "FENGYUN 3E",
        "meta_object_id": "2021-062A",
        "meta_epoch": "2025-12-20T15:17:36.191616",
        "meta_mean_motion": 14.19881225,
        "meta_eccentricity": 7.579e-05,
        "meta_inclination": 98.7468,
        "meta_ra_of_asc_node": 355.0647,
        "meta_arg_of_pericenter": 210.6836,
        "meta_mean_anomaly": 149.4296,
        "meta_ephemeris_type": 0,
        "meta_classification_type": "U",
        "meta_norad_cat_id": 49008,
        "meta_element_set_no": 999,
        "meta_rev_at_epoch": 23124,
        "meta_bstar": 9.8757175e-05,
        "meta_mean_motion_dot": 1.66e-06,
        "meta_mean_motion_ddot": 0,
        "tle_line1": "1 49008U 21062A   25354.63722444  .00000166  00000+0  98757-4 0  9995",
        "tle_line2": "2 49008  98.7468 355.0647 0000757 210.6836 149.4296 14.19881225231248"
      },
      "geometry": {
        "type": "Point",
        "coordinates": [
          -11.800544610872164,
          38.41231010439014
        ]
      }
    },
    {
      "type": "Feature",
      "properties": {
        "norad_id": 51850,
        "name": "GOES 18",
        "group": "weather",
        "lat": 0.005630866740395366,
        "lon": -124.50663138886559,
        "alt_km": 35786.11694620997,
        "timestamp": "2025-12-20T18:51:31.361073+00:00",
        "meta_object_name": "GOES 18",
        "meta_object_id": "2022-021A",
        "meta_epoch": "2025-12-20T12:23:44.769696",
        "meta_mean_motion": 1.00273029,
        "meta_eccentricity": 5.151e-05,
        "meta_inclination": 0.0209,
        "meta_ra_of_asc_node": 180.637,
        "meta_arg_of_pericenter": 155.9639,
        "meta_mean_anomaly": 161.6967,
        "meta_ephemeris_type": 0,
        "meta_classification_type": "U",
        "meta_norad_cat_id": 51850,
        "meta_element_set_no": 999,
        "meta_rev_at_epoch": 480,
        "meta_bstar": 0,
        "meta_mean_motion_dot": 1.2e-06,
        "meta_mean_motion_ddot": 0,
        "tle_line1": "1 51850U 22021A   25354.51649039  .00000120  00000+0  00000+0 0  9993",
        "tle_line2": "2 51850   0.0209 180.6370 0000515 155.9639 161.6967  1.00273029  4808"
      },
      "geometry": {
        "type": "Point",
        "coordinates": [
          -124.50663138886559,
          0.005630866740395366
        ]
      }
    },
    {
      "type": "Feature",
      "properties": {
        "norad_id": 54234,
        "name": "NOAA 21 (JPSS-2)",
        "group": "weather",
        "lat": 34.616517387670264,
        "lon": -75.10694457286475,
        "alt_km": 823.3174978216766,
        "timestamp": "2025-12-20T18:51:31.361084+00:00",
        "meta_object_name": "NOAA 21 (JPSS-2)",
        "meta_object_id": "2022-150A",
        "meta_epoch": "2025-12-20T13:37:08.649408",
        "meta_mean_motion": 14.19526134,
        "meta_eccentricity": 0.00018787,
        "meta_inclination": 98.7473,
        "meta_ra_of_asc_node": 290.7783,
        "meta_arg_of_pericenter": 22.3745,
        "meta_mean_anomaly": 337.7513,
        "meta_ephemeris_type": 0,
        "meta_classification_type": "U",
        "meta_norad_cat_id": 54234,
        "meta_element_set_no": 999,
        "meta_rev_at_epoch": 16120,
        "meta_bstar": 4.3241891e-05,
        "meta_mean_motion_dot": 4.7e-07,
        "meta_mean_motion_ddot": 0,
        "tle_line1": "1 54234U 22150A   25354.56746122  .00000047  00000+0  43242-4 0  9999",
        "tle_line2": "2 54234  98.7473 290.7783 0001878  22.3745 337.7513 14.19526134161206"
      },
      "geometry": {
        "type": "Point",
        "coordinates": [
          -75.10694457286475,
          34.616517387670264
        ]
      }
    },
    {
      "type": "Feature",
      "properties": {
        "norad_id": 54743,
        "name": "METEOSAT-12 (MTG-I1)",
        "group": "weather",
        "lat": -0.14651065961039075,
        "lon": 12.194851032464397,
        "alt_km": 35788.315216187846,
        "timestamp": "2025-12-20T18:51:31.361097+00:00",
        "meta_object_name": "METEOSAT-12 (MTG-I1)",
        "meta_object_id": "2022-170C",
        "meta_epoch": "2025-12-20T10:23:38.656320",
        "meta_mean_motion": 1.00270563,
        "meta_eccentricity": 0.00014791,
        "meta_inclination": 0.6946,
        "meta_ra_of_asc_node": 24.8918,
        "meta_arg_of_pericenter": 239.7509,
        "meta_mean_anomaly": 340.2284,
        "meta_ephemeris_type": 0,
        "meta_classification_type": "U",
        "meta_norad_cat_id": 54743,
        "meta_element_set_no": 999,
        "meta_rev_at_epoch": 1118,
        "meta_bstar": 0,
        "meta_mean_motion_dot": 1.6e-07,
        "meta_mean_motion_ddot": 0,
        "tle_line1": "1 54743U 22170C   25354.43308630  .00000016  00000+0  00000+0 0  9996",
        "tle_line2": "2 54743   0.6946  24.8918 0001479 239.7509 340.2284  1.00270563 11186"
      },
      "geometry": {
        "type": "Point",
        "coordinates": [
          12.194851032464397,
          -0.14651065961039075
        ]
      }
    }
  ]
}